[{
    "city": "Angappanaicken Street",
    "zipcode": "600001"
  },
  {
    "city": "Anna Road H O",
    "zipcode": "600002"
  },
  {
    "city": "Annaroad Sourth",
    "zipcode": "600002"
  },
  {
    "city": "Alandur",
    "zipcode": "600016"
  },
  {
    "city": "Abiramapuram",
    "zipcode": "600018"
  },
  {
    "city": "Adyar",
    "zipcode": "600020"
  },
  {
    "city": "Ayanavaram",
    "zipcode": "600023"
  },
  {
    "city": "Ayanavaram Rly Colony",
    "zipcode": "600023"
  },
  {
    "city": "Arcot Road",
    "zipcode": "600024"
  },
  {
    "city": "Annamalaipuram",
    "zipcode": "600028"
  },
  {
    "city": "Aminijikarai",
    "zipcode": "600029"
  },
  {
    "city": "Alandur North",
    "zipcode": "600032"
  },
  {
    "city": "Annanagar",
    "zipcode": "600040"
  },
  {
    "city": "Ambattur Bazaar",
    "zipcode": "600053"
  },
  {
    "city": "Ambattur H O",
    "zipcode": "600053"
  },
  {
    "city": "Ambattur West",
    "zipcode": "600053"
  },
  {
    "city": "Avadi",
    "zipcode": "600054"
  },
  {
    "city": "Avadi Camp H O",
    "zipcode": "600054"
  },
  {
    "city": "Avadi Air Force Quarters",
    "zipcode": "600055"
  },
  {
    "city": "Avadi Iaf",
    "zipcode": "600055"
  },
  {
    "city": "Ambattur Industrial Estat",
    "zipcode": "600058"
  },
  {
    "city": "Anakaputhur",
    "zipcode": "600070"
  },
  {
    "city": "Agaram",
    "zipcode": "600082"
  },
  {
    "city": "Ashok Nagar",
    "zipcode": "600083"
  },
  {
    "city": "Alwar Tirunagar",
    "zipcode": "600087"
  },
  {
    "city": "Adambakkam",
    "zipcode": "600088"
  },
  {
    "city": "Annanagar Western Extn",
    "zipcode": "600101"
  },
  {
    "city": "Annanagar East",
    "zipcode": "600102"
  },
  {
    "city": "Arumbakkam",
    "zipcode": "600106"
  },
  {
    "city": "Ashtabujam Road",
    "zipcode": "600112"
  },
  {
    "city": "Arni Cpt",
    "zipcode": "601101"
  },
  {
    "city": "Arambakkam R S",
    "zipcode": "601207"
  },
  {
    "city": "Alagesa Nagar",
    "zipcode": "603001"
  },
  {
    "city": "Athur Cpt",
    "zipcode": "603101"
  },
  {
    "city": "Anambakkam",
    "zipcode": "603122"
  },
  {
    "city": "Acharapakkam",
    "zipcode": "603301"
  },
  {
    "city": "Acharapakkam West",
    "zipcode": "603301"
  },
  {
    "city": "Ananthamangalam",
    "zipcode": "603320"
  },
  {
    "city": "Avarakkam",
    "zipcode": "604001"
  },
  {
    "city": "Akshipakkam",
    "zipcode": "604101"
  },
  {
    "city": "Alampoondi",
    "zipcode": "604151"
  },
  {
    "city": "Avalurpet",
    "zipcode": "604201"
  },
  {
    "city": "Anukkavur",
    "zipcode": "604401"
  },
  {
    "city": "Ariyankuppam",
    "zipcode": "605007"
  },
  {
    "city": "Aroville",
    "zipcode": "605101"
  },
  {
    "city": "Anantapuram",
    "zipcode": "605201"
  },
  {
    "city": "Anniyur",
    "zipcode": "605202"
  },
  {
    "city": "Adanur (S A)",
    "zipcode": "605403"
  },
  {
    "city": "Ariyur",
    "zipcode": "605751"
  },
  {
    "city": "Arakandanallur",
    "zipcode": "605752"
  },
  {
    "city": "Arcadu",
    "zipcode": "605765"
  },
  {
    "city": "Ariyalur (South Arcot)",
    "zipcode": "605801"
  },
  {
    "city": "Avinangudi",
    "zipcode": "606112"
  },
  {
    "city": "Aladi",
    "zipcode": "606121"
  },
  {
    "city": "Alathur S A",
    "zipcode": "606211"
  },
  {
    "city": "Asanur",
    "zipcode": "606305"
  },
  {
    "city": "Arasampattu",
    "zipcode": "606403"
  },
  {
    "city": "Andampallam",
    "zipcode": "606810"
  },
  {
    "city": "Adamangalam",
    "zipcode": "606901"
  },
  {
    "city": "A K Padavedu",
    "zipcode": "606913"
  },
  {
    "city": "Alavil",
    "zipcode": "607008"
  },
  {
    "city": "Annavalli",
    "zipcode": "607052"
  },
  {
    "city": "Anathur",
    "zipcode": "607101"
  },
  {
    "city": "Anguchettipalayam",
    "zipcode": "607110"
  },
  {
    "city": "Aziz Nagar",
    "zipcode": "607804"
  },
  {
    "city": "Ammeri",
    "zipcode": "607806"
  },
  {
    "city": "Annamalai University",
    "zipcode": "608002"
  },
  {
    "city": "Annamalainagar",
    "zipcode": "608002"
  },
  {
    "city": "Alapakkam",
    "zipcode": "608801"
  },
  {
    "city": "Andarmullipallam",
    "zipcode": "608802"
  },
  {
    "city": "Achalpuram",
    "zipcode": "609101"
  },
  {
    "city": "Anaikaranchatram",
    "zipcode": "609102"
  },
  {
    "city": "Anandatandavapuram",
    "zipcode": "609103"
  },
  {
    "city": "Annaperumal Koil",
    "zipcode": "609125"
  },
  {
    "city": "Arapallam",
    "zipcode": "609128"
  },
  {
    "city": "Alakudi (Mayuram)",
    "zipcode": "609129"
  },
  {
    "city": "Akkur (Thanjavur)",
    "zipcode": "609301"
  },
  {
    "city": "Arangakudi",
    "zipcode": "609302"
  },
  {
    "city": "Ayappadi",
    "zipcode": "609303"
  },
  {
    "city": "Ambagarathur",
    "zipcode": "609601"
  },
  {
    "city": "Anaikuppam",
    "zipcode": "610115"
  },
  {
    "city": "Alathampadi",
    "zipcode": "610211"
  },
  {
    "city": "Adaikkamangalam",
    "zipcode": "611101"
  },
  {
    "city": "Andanapettai",
    "zipcode": "611102"
  },
  {
    "city": "Athipuliyur",
    "zipcode": "611116"
  },
  {
    "city": "Aliyur",
    "zipcode": "611117"
  },
  {
    "city": "Aduthurai",
    "zipcode": "612101"
  },
  {
    "city": "Avaniapuram (Tnj)",
    "zipcode": "612107"
  },
  {
    "city": "Avoor",
    "zipcode": "612701"
  },
  {
    "city": "Alangudi (Thanjavur)",
    "zipcode": "612801"
  },
  {
    "city": "Alakudi (Thanjavur)",
    "zipcode": "613601"
  },
  {
    "city": "Ammayappan",
    "zipcode": "613701"
  },
  {
    "city": "Athikadai",
    "zipcode": "613702"
  },
  {
    "city": "Abiviethiswaram",
    "zipcode": "613706"
  },
  {
    "city": "Ayyampet (Thanjavur)",
    "zipcode": "614201"
  },
  {
    "city": "Ayyampet Bazaar",
    "zipcode": "614201"
  },
  {
    "city": "Ammapet",
    "zipcode": "614401"
  },
  {
    "city": "Arundavapuram",
    "zipcode": "614405"
  },
  {
    "city": "Aladikumulai",
    "zipcode": "614615"
  },
  {
    "city": "Arantagi",
    "zipcode": "614616"
  },
  {
    "city": "Ammapattinam",
    "zipcode": "614617"
  },
  {
    "city": "Avadayarkoil",
    "zipcode": "614618"
  },
  {
    "city": "Avanam",
    "zipcode": "614623"
  },
  {
    "city": "Attani",
    "zipcode": "614630"
  },
  {
    "city": "Adambai",
    "zipcode": "614639"
  },
  {
    "city": "Arantangi Fort",
    "zipcode": "614647"
  },
  {
    "city": "Adirampattinam",
    "zipcode": "614701"
  },
  {
    "city": "Adirampattinam Town",
    "zipcode": "614701"
  },
  {
    "city": "Adichapuram",
    "zipcode": "614717"
  },
  {
    "city": "Adanur Pattukkottai",
    "zipcode": "614734"
  },
  {
    "city": "Arasarkulam",
    "zipcode": "614801"
  },
  {
    "city": "Arkattuthurai",
    "zipcode": "614813"
  },
  {
    "city": "Alathur (Tnj)",
    "zipcode": "614901"
  },
  {
    "city": "Annamandapam",
    "zipcode": "620006"
  },
  {
    "city": "Administrative Office Bhel",
    "zipcode": "620014"
  },
  {
    "city": "Asoor",
    "zipcode": "620052"
  },
  {
    "city": "Ammapalayam",
    "zipcode": "621101"
  },
  {
    "city": "Annamangalam",
    "zipcode": "621102"
  },
  {
    "city": "Arumbavur",
    "zipcode": "621103"
  },
  {
    "city": "Ayilur",
    "zipcode": "621130"
  },
  {
    "city": "Arts College",
    "zipcode": "621201"
  },
  {
    "city": "Ayyampalayam",
    "zipcode": "621202"
  },
  {
    "city": "Amur",
    "zipcode": "621221"
  },
  {
    "city": "Ambapur",
    "zipcode": "621701"
  },
  {
    "city": "Ambil",
    "zipcode": "621702"
  },
  {
    "city": "Angarai",
    "zipcode": "621703"
  },
  {
    "city": "Ariyalur Trichy",
    "zipcode": "621704"
  },
  {
    "city": "Ariyalur Bazar",
    "zipcode": "621704"
  },
  {
    "city": "Ariyalur Cement Factory",
    "zipcode": "621704"
  },
  {
    "city": "Asaveerankudikadu",
    "zipcode": "621719"
  },
  {
    "city": "Alambakkam",
    "zipcode": "621724"
  },
  {
    "city": "Andimadam",
    "zipcode": "621801"
  },
  {
    "city": "Ambalpuram",
    "zipcode": "622001"
  },
  {
    "city": "Annavasal",
    "zipcode": "622101"
  },
  {
    "city": "Arimalam",
    "zipcode": "622201"
  },
  {
    "city": "Andakulam",
    "zipcode": "622207"
  },
  {
    "city": "Addanakottai",
    "zipcode": "622210"
  },
  {
    "city": "Alangudi (Pdk)",
    "zipcode": "622301"
  },
  {
    "city": "Alagappapuram H O",
    "zipcode": "623003"
  },
  {
    "city": "Alagappa Engg College",
    "zipcode": "623004"
  },
  {
    "city": "Athangudi",
    "zipcode": "623101"
  },
  {
    "city": "Athikadu Thekkur",
    "zipcode": "623201"
  },
  {
    "city": "Ariyakudi",
    "zipcode": "623202"
  },
  {
    "city": "Arumuga Nagar",
    "zipcode": "623211"
  },
  {
    "city": "Amaravathi Pudur",
    "zipcode": "623301"
  },
  {
    "city": "Anandur",
    "zipcode": "623401"
  },
  {
    "city": "Anjukottai",
    "zipcode": "623410"
  },
  {
    "city": "Achunthanvayal",
    "zipcode": "623502"
  },
  {
    "city": "Alangankulam",
    "zipcode": "623512"
  },
  {
    "city": "Athiyuthu",
    "zipcode": "623539"
  },
  {
    "city": "Abiramam",
    "zipcode": "623601"
  },
  {
    "city": "Appanur",
    "zipcode": "623714"
  },
  {
    "city": "Angu Nagar",
    "zipcode": "624008"
  },
  {
    "city": "Anandagiri",
    "zipcode": "624102"
  },
  {
    "city": "Ammayanayakkanur",
    "zipcode": "624201"
  },
  {
    "city": "Andipatti",
    "zipcode": "624225"
  },
  {
    "city": "Ambathurai R S",
    "zipcode": "624309"
  },
  {
    "city": "Ambathurai",
    "zipcode": "624311"
  },
  {
    "city": "Ambilikai",
    "zipcode": "624612"
  },
  {
    "city": "Ayakudi",
    "zipcode": "624613"
  },
  {
    "city": "Amarapundi",
    "zipcode": "624627"
  },
  {
    "city": "Ahtoor (Madurai)",
    "zipcode": "624701"
  },
  {
    "city": "Ayyalur",
    "zipcode": "624801"
  },
  {
    "city": "Alagappa Nagar",
    "zipcode": "625003"
  },
  {
    "city": "Avaniapuram (Mdu)",
    "zipcode": "625012"
  },
  {
    "city": "Arasaradi H O",
    "zipcode": "625016"
  },
  {
    "city": "Arignaranna Nagar",
    "zipcode": "625020"
  },
  {
    "city": "Ambalakaranpatti",
    "zipcode": "625123"
  },
  {
    "city": "Alagarkoil",
    "zipcode": "625301"
  },
  {
    "city": "Alanganallur",
    "zipcode": "625501"
  },
  {
    "city": "Amathur",
    "zipcode": "626005"
  },
  {
    "city": "Alagianallur",
    "zipcode": "626056"
  },
  {
    "city": "Avalsurampatti",
    "zipcode": "626059"
  },
  {
    "city": "Aruppukkottai H O",
    "zipcode": "626101"
  },
  {
    "city": "Aruppukottai Bazaar",
    "zipcode": "626101"
  },
  {
    "city": "Aruppukottai East",
    "zipcode": "626101"
  },
  {
    "city": "Aruppukottai Nehru Maidan",
    "zipcode": "626101"
  },
  {
    "city": "Aruppukottai West",
    "zipcode": "626101"
  },
  {
    "city": "Aruvankadu",
    "zipcode": "626101"
  },
  {
    "city": "Ambalapuli Bazaar",
    "zipcode": "626117"
  },
  {
    "city": "Ammankoilpatti",
    "zipcode": "626123"
  },
  {
    "city": "Alangulam",
    "zipcode": "626144"
  },
  {
    "city": "Aviyur",
    "zipcode": "626160"
  },
  {
    "city": "Anuppankulam",
    "zipcode": "626165"
  },
  {
    "city": "Anaiyur",
    "zipcode": "626180"
  },
  {
    "city": "Avadayapuram",
    "zipcode": "626209"
  },
  {
    "city": "Appanayakkanpatti (Mdu)",
    "zipcode": "626213"
  },
  {
    "city": "Aundipatti",
    "zipcode": "626512"
  },
  {
    "city": "Alliagaram",
    "zipcode": "626531"
  },
  {
    "city": "Ammapatti",
    "zipcode": "626541"
  },
  {
    "city": "Athipatti",
    "zipcode": "626711"
  },
  {
    "city": "Alappacheri",
    "zipcode": "626722"
  },
  {
    "city": "Anaikulam",
    "zipcode": "627125"
  },
  {
    "city": "Anavaradanallur",
    "zipcode": "627302"
  },
  {
    "city": "Ambasamudram H O",
    "zipcode": "627401"
  },
  {
    "city": "Angadi",
    "zipcode": "627401"
  },
  {
    "city": "Ambasamudram",
    "zipcode": "627401"
  },
  {
    "city": "Ambasamudram East",
    "zipcode": "627401"
  },
  {
    "city": "Alwar Kurichi",
    "zipcode": "627412"
  },
  {
    "city": "Ambalavanapuram",
    "zipcode": "627425"
  },
  {
    "city": "Avudayanur",
    "zipcode": "627431"
  },
  {
    "city": "Ayakkarambalam Ii",
    "zipcode": "627431"
  },
  {
    "city": "Aladiyur",
    "zipcode": "627434"
  },
  {
    "city": "Ariyanayagipuram Pettai",
    "zipcode": "627603"
  },
  {
    "city": "Achanputhur",
    "zipcode": "627801"
  },
  {
    "city": "Alangulam (Tvl)",
    "zipcode": "627851"
  },
  {
    "city": "Ayikudi",
    "zipcode": "627852"
  },
  {
    "city": "Ariyanayagipuram",
    "zipcode": "627901"
  },
  {
    "city": "Alagesapuram",
    "zipcode": "628002"
  },
  {
    "city": "Athimarathupatti",
    "zipcode": "628051"
  },
  {
    "city": "Autoor",
    "zipcode": "628151"
  },
  {
    "city": "Ammanpuram",
    "zipcode": "628201"
  },
  {
    "city": "Arumuganeri",
    "zipcode": "628202"
  },
  {
    "city": "Adaikalapuram",
    "zipcode": "628217"
  },
  {
    "city": "Alantalai",
    "zipcode": "628221"
  },
  {
    "city": "Akkanaickenpatti",
    "zipcode": "628309"
  },
  {
    "city": "Alwar Tinunagari",
    "zipcode": "628612"
  },
  {
    "city": "Asirvadhapuram",
    "zipcode": "628613"
  },
  {
    "city": "Arampannai",
    "zipcode": "628625"
  },
  {
    "city": "Anandapuram (Tvl)",
    "zipcode": "628701"
  },
  {
    "city": "Ambinagaram",
    "zipcode": "628707"
  },
  {
    "city": "Alancholai",
    "zipcode": "629103"
  },
  {
    "city": "Arumana",
    "zipcode": "629151"
  },
  {
    "city": "Alagimandapuram",
    "zipcode": "629167"
  },
  {
    "city": "Atur (Tiruvattur)",
    "zipcode": "629191"
  },
  {
    "city": "Asaripallam",
    "zipcode": "629201"
  },
  {
    "city": "Ammandivilai",
    "zipcode": "629204"
  },
  {
    "city": "Aramboly",
    "zipcode": "629301"
  },
  {
    "city": "Azhagappapuram",
    "zipcode": "629401"
  },
  {
    "city": "Agasteeswaram",
    "zipcode": "629701"
  },
  {
    "city": "Aloor",
    "zipcode": "629801"
  },
  {
    "city": "Azhakiapandiapuram Darsan",
    "zipcode": "629851"
  },
  {
    "city": "Arumanallur",
    "zipcode": "629853"
  },
  {
    "city": "Ashok Nagar",
    "zipcode": "631001"
  },
  {
    "city": "Arakkonam Bazaar",
    "zipcode": "631001"
  },
  {
    "city": "Arakkonam H O",
    "zipcode": "631001"
  },
  {
    "city": "Arungolam",
    "zipcode": "631201"
  },
  {
    "city": "Athimanjeeripet",
    "zipcode": "631202"
  },
  {
    "city": "Ammavarikuppam",
    "zipcode": "631301"
  },
  {
    "city": "Ayyangarkulam",
    "zipcode": "631555"
  },
  {
    "city": "Ayyampettai",
    "zipcode": "631601"
  },
  {
    "city": "Arpakkam",
    "zipcode": "631609"
  },
  {
    "city": "Akkur N A",
    "zipcode": "631701"
  },
  {
    "city": "Abdullapuram",
    "zipcode": "632010"
  },
  {
    "city": "Ariyur (Vellore)",
    "zipcode": "632055"
  },
  {
    "city": "Anaikattu",
    "zipcode": "632101"
  },
  {
    "city": "Arni Bazaar",
    "zipcode": "632301"
  },
  {
    "city": "Arni Fort",
    "zipcode": "632301"
  },
  {
    "city": "Arni H O",
    "zipcode": "632301"
  },
  {
    "city": "Arunagirichatram",
    "zipcode": "632301"
  },
  {
    "city": "Ammoor",
    "zipcode": "632501"
  },
  {
    "city": "Anavardhikhanpettai",
    "zipcode": "632502"
  },
  {
    "city": "Arcot Bazaar",
    "zipcode": "632503"
  },
  {
    "city": "Arcot H O",
    "zipcode": "632503"
  },
  {
    "city": "Arcot West",
    "zipcode": "632503"
  },
  {
    "city": "Arignar Anna Govt",
    "zipcode": "632503"
  },
  {
    "city": "Anchetty",
    "zipcode": "635102"
  },
  {
    "city": "Alappatti",
    "zipcode": "635122"
  },
  {
    "city": "Agraharam",
    "zipcode": "635129"
  },
  {
    "city": "Athimugam",
    "zipcode": "635132"
  },
  {
    "city": "Andevanapalli",
    "zipcode": "635138"
  },
  {
    "city": "Arasampatti",
    "zipcode": "635208"
  },
  {
    "city": "Adiyur",
    "zipcode": "635655"
  },
  {
    "city": "Alangayam",
    "zipcode": "635701"
  },
  {
    "city": "Andiappanur",
    "zipcode": "635702"
  },
  {
    "city": "Ambalur",
    "zipcode": "635801"
  },
  {
    "city": "Ambur",
    "zipcode": "635802"
  },
  {
    "city": "Ambur Bazaar",
    "zipcode": "635802"
  },
  {
    "city": "Ambur R S",
    "zipcode": "635802"
  },
  {
    "city": "Agaram",
    "zipcode": "635816"
  },
  {
    "city": "Alasandapuram",
    "zipcode": "635823"
  },
  {
    "city": "Agaramcherry",
    "zipcode": "635826"
  },
  {
    "city": "Athurukuppam",
    "zipcode": "635857"
  },
  {
    "city": "Agraharam",
    "zipcode": "636001"
  },
  {
    "city": "Anandanapatti",
    "zipcode": "636002"
  },
  {
    "city": "Ammapettai Bazaar",
    "zipcode": "636003"
  },
  {
    "city": "Ammapettai Salem",
    "zipcode": "636003"
  },
  {
    "city": "Alagapuram",
    "zipcode": "636004"
  },
  {
    "city": "Ayyanthirumaligai",
    "zipcode": "636008"
  },
  {
    "city": "Arisipalayam",
    "zipcode": "636009"
  },
  {
    "city": "Aragalur",
    "zipcode": "636101"
  },
  {
    "city": "Attur Salem",
    "zipcode": "636102"
  },
  {
    "city": "Atur Bazaar",
    "zipcode": "636102"
  },
  {
    "city": "Ayodhyapattinam",
    "zipcode": "636103"
  },
  {
    "city": "Athanur",
    "zipcode": "636301"
  },
  {
    "city": "Ariyanur",
    "zipcode": "636310"
  },
  {
    "city": "Arasur (Gobi)",
    "zipcode": "636464"
  },
  {
    "city": "Araganur",
    "zipcode": "636465"
  },
  {
    "city": "Adayur",
    "zipcode": "636505"
  },
  {
    "city": "Appavoo Nagar",
    "zipcode": "636701"
  },
  {
    "city": "Annasagaram",
    "zipcode": "636704"
  },
  {
    "city": "Ammanimallapuram",
    "zipcode": "636801"
  },
  {
    "city": "Adiyamankottai",
    "zipcode": "636814"
  },
  {
    "city": "Adagapadi",
    "zipcode": "636818"
  },
  {
    "city": "Ajjanahalli",
    "zipcode": "636822"
  },
  {
    "city": "Anjehalli",
    "zipcode": "636823"
  },
  {
    "city": "A Pallipatti",
    "zipcode": "636901"
  },
  {
    "city": "Anangur",
    "zipcode": "637305"
  },
  {
    "city": "Andagalur",
    "zipcode": "637401"
  },
  {
    "city": "Akkaimpatti",
    "zipcode": "637417"
  },
  {
    "city": "Ariyagoundanpatti",
    "zipcode": "637423"
  },
  {
    "city": "Attayampatti",
    "zipcode": "637501"
  },
  {
    "city": "Agraharam",
    "zipcode": "638008"
  },
  {
    "city": "Archalur",
    "zipcode": "638101"
  },
  {
    "city": "Avalpundurai",
    "zipcode": "638115"
  },
  {
    "city": "A Nagore",
    "zipcode": "638213"
  },
  {
    "city": "Ammapettai Bhavani",
    "zipcode": "638311"
  },
  {
    "city": "Ayyampalayam",
    "zipcode": "638463"
  },
  {
    "city": "Akkaraikodiveri",
    "zipcode": "638474"
  },
  {
    "city": "Anthiyur",
    "zipcode": "638501"
  },
  {
    "city": "Athani",
    "zipcode": "638502"
  },
  {
    "city": "Aingalipalayam",
    "zipcode": "638611"
  },
  {
    "city": "Alangiam",
    "zipcode": "638651"
  },
  {
    "city": "Anuppapalayam",
    "zipcode": "638652"
  },
  {
    "city": "Annur",
    "zipcode": "638653"
  },
  {
    "city": "Avanashi",
    "zipcode": "638654"
  },
  {
    "city": "Avanashipalayam",
    "zipcode": "638674"
  },
  {
    "city": "Andanallur",
    "zipcode": "639101"
  },
  {
    "city": "Aravakurichi",
    "zipcode": "639201"
  },
  {
    "city": "Anupparpalayam",
    "zipcode": "641009"
  },
  {
    "city": "Alandurai",
    "zipcode": "641101"
  },
  {
    "city": "Athikadavu",
    "zipcode": "641102"
  },
  {
    "city": "Akkaraisengapalli",
    "zipcode": "641304"
  },
  {
    "city": "Arasur",
    "zipcode": "641407"
  },
  {
    "city": "Appanaickenpatti",
    "zipcode": "641408"
  },
  {
    "city": "Angalakurichi",
    "zipcode": "642007"
  },
  {
    "city": "Akilandapuram",
    "zipcode": "642052"
  },
  {
    "city": "Aliyarnagar",
    "zipcode": "642101"
  },
  {
    "city": "Amaravathi Nagar",
    "zipcode": "642102"
  },
  {
    "city": "Ambarampalayam",
    "zipcode": "642103"
  },
  {
    "city": "Anamalai",
    "zipcode": "642104"
  },
  {
    "city": "Aravenu",
    "zipcode": "643201"
  },
  {
    "city": "Avalanchi Power House",
    "zipcode": "643280"
  }
]
